{
  "type": "FeatureCollection",
  "features": [
    {
      "type": "Feature",
      "properties": {
        "norad_id": 15362,
        "name": "NOVA 3",
        "group": "nnss",
        "lat": -17.941799689205787,
        "lon": 80.58505176477702,
        "alt_km": 1155.6031417790246,
        "timestamp": "2025-12-13T15:35:12.375022+00:00",
        "meta_object_name": "NOVA 3",
        "meta_object_id": "1984-110A",
        "meta_epoch": "2025-12-12T23:36:45.288864",
        "meta_mean_motion": 13.23044567,
        "meta_eccentricity": 0.00304798,
        "meta_inclination": 90.1223,
        "meta_ra_of_asc_node": 80.5376,
        "meta_arg_of_pericenter": 331.2169,
        "meta_mean_anomaly": 82.526,
        "meta_ephemeris_type": 0,
        "meta_classification_type": "U",
        "meta_norad_cat_id": 15362,
        "meta_element_set_no": 999,
        "meta_rev_at_epoch": 98702,
        "meta_bstar": 0.00019449485,
        "meta_mean_motion_dot": 9e-07,
        "meta_mean_motion_ddot": 0,
        "tle_line1": "1 15362U 84110A   25346.98385751  .00000090  00000+0  19449-3 0  9995",
        "tle_line2": "2 15362  90.1223  80.5376 0030479 331.2169  82.5260 13.23044567987027"
      },
      "geometry": {
        "type": "Point",
        "coordinates": [
          80.58505176477702,
          -17.941799689205787
        ]
      }
    },
    {
      "type": "Feature",
      "properties": {
        "norad_id": 15935,
        "name": "OSCAR 30",
        "group": "nnss",
        "lat": 73.6686471234332,
        "lon": -79.57445234278208,
        "alt_km": 1001.3603489809293,
        "timestamp": "2025-12-13T15:35:12.375032+00:00",
        "meta_object_name": "OSCAR 30",
        "meta_object_id": "1985-066A",
        "meta_epoch": "2025-12-12T19:52:13.418976",
        "meta_mean_motion": 13.36078365,
        "meta_eccentricity": 0.01693984,
        "meta_inclination": 90.1651,
        "meta_ra_of_asc_node": 99.8484,
        "meta_arg_of_pericenter": 83.6607,
        "meta_mean_anomaly": 32.7559,
        "meta_ephemeris_type": 0,
        "meta_classification_type": "U",
        "meta_norad_cat_id": 15935,
        "meta_element_set_no": 999,
        "meta_rev_at_epoch": 96454,
        "meta_bstar": 0.00021973948,
        "meta_mean_motion_dot": 1.32e-06,
        "meta_mean_motion_ddot": 0,
        "tle_line1": "1 15935U 85066A   25346.82793309  .00000132  00000+0  21974-3 0  9990",
        "tle_line2": "2 15935  90.1651  99.8484 0169398  83.6607  32.7559 13.36078365964546"
      },
      "geometry": {
        "type": "Point",
        "coordinates": [
          -79.57445234278208,
          73.6686471234332
        ]
      }
    },
    {
      "type": "Feature",
      "properties": {
        "norad_id": 15936,
        "name": "OSCAR 24",
        "group": "nnss",
        "lat": -2.429658149970792,
        "lon": -87.68618137024468,
        "alt_km": 1135.6554429055168,
        "timestamp": "2025-12-13T15:35:12.375042+00:00",
        "meta_object_name": "OSCAR 24",
        "meta_object_id": "1985-066B",
        "meta_epoch": "2025-12-12T21:18:27.465696",
        "meta_mean_motion": 13.35935799,
        "meta_eccentricity": 0.01704639,
        "meta_inclination": 90.179,
        "meta_ra_of_asc_node": 92.308,
        "meta_arg_of_pericenter": 89.9247,
        "meta_mean_anomaly": 29.6266,
        "meta_ephemeris_type": 0,
        "meta_classification_type": "U",
        "meta_norad_cat_id": 15936,
        "meta_element_set_no": 999,
        "meta_rev_at_epoch": 96645,
        "meta_bstar": 0.00018528556,
        "meta_mean_motion_dot": 1.13e-06,
        "meta_mean_motion_ddot": 0,
        "tle_line1": "1 15936U 85066B   25346.88781789  .00000113  00000+0  18529-3 0  9997",
        "tle_line2": "2 15936  90.1790  92.3080 0170463  89.9247  29.6266 13.35935799966459"
      },
      "geometry": {
        "type": "Point",
        "coordinates": [
          -87.68618137024468,
          -2.429658149970792
        ]
      }
    },
    {
      "type": "Feature",
      "properties": {
        "norad_id": 17070,
        "name": "POLAR BEAR",
        "group": "nnss",
        "lat": 34.70588589120188,
        "lon": 3.4720407317987765,
        "alt_km": 952.0471458586853,
        "timestamp": "2025-12-13T15:35:12.375053+00:00",
        "meta_object_name": "POLAR BEAR",
        "meta_object_id": "1986-088A",
        "meta_epoch": "2025-12-12T23:43:39.182016",
        "meta_mean_motion": 13.7525081,
        "meta_eccentricity": 0.00409893,
        "meta_inclination": 89.6174,
        "meta_ra_of_asc_node": 183.7638,
        "meta_arg_of_pericenter": 118.5072,
        "meta_mean_anomaly": 356.9037,
        "meta_ephemeris_type": 0,
        "meta_classification_type": "U",
        "meta_norad_cat_id": 17070,
        "meta_element_set_no": 999,
        "meta_rev_at_epoch": 95982,
        "meta_bstar": 0.0001464102,
        "meta_mean_motion_dot": 1.53e-06,
        "meta_mean_motion_ddot": 0,
        "tle_line1": "1 17070U 86088A   25346.98864794  .00000153  00000+0  14641-3 0  9997",
        "tle_line2": "2 17070  89.6174 183.7638 0040989 118.5072 356.9037 13.75250810959820"
      },
      "geometry": {
        "type": "Point",
        "coordinates": [
          3.4720407317987765,
          34.70588589120188
        ]
      }
    },
    {
      "type": "Feature",
      "properties": {
        "norad_id": 18361,
        "name": "OSCAR 27",
        "group": "nnss",
        "lat": -55.71331327383467,
        "lon": 79.85577979462722,
        "alt_km": 1088.236052320034,
        "timestamp": "2025-12-13T15:35:12.375064+00:00",
        "meta_object_name": "OSCAR 27",
        "meta_object_id": "1987-080A",
        "meta_epoch": "2025-12-12T18:26:17.791008",
        "meta_mean_motion": 13.44906712,
        "meta_eccentricity": 0.01029132,
        "meta_inclination": 90.3743,
        "meta_ra_of_asc_node": 79.2735,
        "meta_arg_of_pericenter": 223.7218,
        "meta_mean_anomaly": 135.5746,
        "meta_ephemeris_type": 0,
        "meta_classification_type": "U",
        "meta_norad_cat_id": 18361,
        "meta_element_set_no": 999,
        "meta_rev_at_epoch": 87557,
        "meta_bstar": 0.0002302791,
        "meta_mean_motion_dot": 1.47e-06,
        "meta_mean_motion_ddot": 0,
        "tle_line1": "1 18361U 87080A   25346.76826147  .00000147  00000+0  23028-3 0  9992",
        "tle_line2": "2 18361  90.3743  79.2735 0102913 223.7218 135.5746 13.44906712875571"
      },
      "geometry": {
        "type": "Point",
        "coordinates": [
          79.85577979462722,
          -55.71331327383467
        ]
      }
    },
    {
      "type": "Feature",
      "properties": {
        "norad_id": 18362,
        "name": "OSCAR 29",
        "group": "nnss",
        "lat": -45.085708063413605,
        "lon": 80.14192536826035,
        "alt_km": 1072.8107603510189,
        "timestamp": "2025-12-13T15:35:12.375074+00:00",
        "meta_object_name": "OSCAR 29",
        "meta_object_id": "1987-080B",
        "meta_epoch": "2025-12-12T18:59:04.661952",
        "meta_mean_motion": 13.44448394,
        "meta_eccentricity": 0.0103927,
        "meta_inclination": 90.3753,
        "meta_ra_of_asc_node": 79.7331,
        "meta_arg_of_pericenter": 247.0152,
        "meta_mean_anomaly": 234.5451,
        "meta_ephemeris_type": 0,
        "meta_classification_type": "U",
        "meta_norad_cat_id": 18362,
        "meta_element_set_no": 999,
        "meta_rev_at_epoch": 87510,
        "meta_bstar": 0.00019830157,
        "meta_mean_motion_dot": 1.27e-06,
        "meta_mean_motion_ddot": 0,
        "tle_line1": "1 18362U 87080B   25346.79102618  .00000127  00000+0  19830-3 0  9990",
        "tle_line2": "2 18362  90.3753  79.7331 0103927 247.0152 234.5451 13.44448394875101"
      },
      "geometry": {
        "type": "Point",
        "coordinates": [
          80.14192536826035,
          -45.085708063413605
        ]
      }
    },
    {
      "type": "Feature",
      "properties": {
        "norad_id": 19070,
        "name": "OSCAR 23",
        "group": "nnss",
        "lat": 33.37037611135338,
        "lon": 16.209208974358326,
        "alt_km": 1267.5363441410846,
        "timestamp": "2025-12-13T15:35:12.375084+00:00",
        "meta_object_name": "OSCAR 23",
        "meta_object_id": "1988-033A",
        "meta_epoch": "2025-12-12T23:22:48.239616",
        "meta_mean_motion": 13.27787167,
        "meta_eccentricity": 0.01895499,
        "meta_inclination": 90.3213,
        "meta_ra_of_asc_node": 16.3999,
        "meta_arg_of_pericenter": 179.27,
        "meta_mean_anomaly": 229.5044,
        "meta_ephemeris_type": 0,
        "meta_classification_type": "U",
        "meta_norad_cat_id": 19070,
        "meta_element_set_no": 999,
        "meta_rev_at_epoch": 82256,
        "meta_bstar": 0.00017226082,
        "meta_mean_motion_dot": 9.4e-07,
        "meta_mean_motion_ddot": 0,
        "tle_line1": "1 19070U 88033A   25346.97416944  .00000094  00000+0  17226-3 0  9996",
        "tle_line2": "2 19070  90.3213  16.3999 0189549 179.2700 229.5044 13.27787167822564"
      },
      "geometry": {
        "type": "Point",
        "coordinates": [
          16.209208974358326,
          33.37037611135338
        ]
      }
    }
  ]
}